NORAD_CAT_ID,OBJECT_NAME,OBJECT_TYPE,EPOCH,MEAN_MOTION,ECCENTRICITY,INCLINATION,RA_OF_ASC_NODE,ARG_OF_PERICENTER,MEAN_ANOMALY,BSTAR,MEAN_MOTION_DOT,MEAN_MOTION_DDOT,TLE_LINE0,TLE_LINE1,TLE_LINE2,SEMIMAJOR_AXIS,PERIOD,APOGEE,PERIGEE,DECAYED
53628.0,STARLINK-4600,PAYLOAD,2022-10-27 22:00:00,15.29540882,0.0001705,53.2175,350.5086,44.5994,141.5798,-0.039974,-0.01063976,0.0,0 STARLINK-4600,1 53628U 22104AS  22300.91667824 -.01063976  00000-0 -39974-1 0  9990,2 53628  53.2175 350.5086 0001705  44.5994 141.5798 15.29540882  1307,6855.321,94.146,478.355,476.017,0.0
53628.0,STARLINK-4600,PAYLOAD,2022-10-28 08:00:01,15.28592534,0.0001771999999999,53.2172,348.5802,36.151,284.9564,-0.041232,-0.01065596,0.0,0 STARLINK-4600,1 53628U 22104AS  22301.33335648 -.01065596  00000-0 -41232-1 0  9993,2 53628  53.2172 348.5802 0001772  36.1510 284.9564 15.28592534  9617,6858.156,94.204,481.236,478.806,0.0
53628.0,STARLINK-4600,PAYLOAD,2022-10-28 14:00:01,15.28027234,0.000186,53.2172,347.4253,37.9573,219.3814,-0.042156,-0.01070275,0.0,0 STARLINK-4600,1 53628U 22104AS  22301.58335648 -.01070275  00000-0 -42156-1 0  9996,2 53628  53.2172 347.4253 0001860  37.9573 219.3814 15.28027234  1309,6859.847,94.239,482.98800000000006,480.436,0.0
53628.0,STARLINK-4600,PAYLOAD,2022-10-28 22:00:01,15.27269531,0.000162,53.2174,345.8830000000001,35.6902,255.831,-0.043334,-0.01074473,0.0,0 STARLINK-4600,1 53628U 22104AS  22301.91668981 -.01074473  00000-0 -43334-1 0  9995,2 53628  53.2174 345.8830 0001620  35.6902 255.8310 15.27269531  1302,6862.116,94.286,485.093,482.869,0.0
53628.0,STARLINK-4600,PAYLOAD,2022-10-29 08:00:01,15.26313283,0.0001974,53.2173,343.9609,24.4332,38.4702,-0.04417,-0.01064661,0.0,0 STARLINK-4600,1 53628U 22104AS  22302.33334491 -.01064661  00000-0 -44170-1 0  9995,2 53628  53.2173 343.9609 0001974  24.4332  38.4702 15.26313283  9771,6864.982,94.345,488.202,485.492,0.0
53628.0,STARLINK-4600,PAYLOAD,2022-10-29 12:00:00,15.25933374,0.0002032999999999,53.2175,343.1932,33.5227,225.5579,-0.044624,-0.01063384,0.0,0 STARLINK-4600,1 53628U 22104AS  22302.50001157 -.01063384  00000-0 -44624-1 0  9999,2 53628  53.2175 343.1932 0002033  33.5227 225.5579 15.25933374  1305,6866.121,94.368,489.382,486.59,0.0
53628.0,STARLINK-4600,PAYLOAD,2022-10-29 22:00:01,15.24983135,0.0001481,53.2174,341.2723,43.5279,345.0649,-0.045909,-0.01062905,0.0,0 STARLINK-4600,1 53628U 22104AS  22302.91668981 -.01062905  00000-0 -45909-1 0  9993,2 53628  53.2174 341.2723 0001481  43.5279 345.0649 15.24983135  1300,6868.973000000001,94.427,491.855,489.821,0.0
53628.0,STARLINK-4600,PAYLOAD,2022-10-30 14:00:01,15.23462144,0.0001884,53.2172,338.2101,37.4626,51.2142,-0.047847,-0.01058746,0.0,0 STARLINK-4600,1 53628U 22104AS  22303.58334491 -.01058746  00000-0 -47847-1 0  9994,2 53628  53.2172 338.2101 0001884  37.4626  51.2142 15.23462144  1304,6873.544,94.522,496.704,494.114,0.0
53628.0,STARLINK-4600,PAYLOAD,2022-10-30 22:00:01,15.22703909,0.0001996999999999,53.2174,336.6787,34.3432,83.1035,-0.049095,-0.01061804,0.0,0 STARLINK-4600,1 53628U 22104AS  22303.91668981 -.01061804  00000-0 -49095-1 0  9991,2 53628  53.2174 336.6787 0001997  34.3432  83.1035 15.22703909  1305,6875.826,94.569,499.064,496.318,0.0
53628.0,STARLINK-4600,PAYLOAD,2022-10-31 14:00:01,15.21184674,0.0001841,53.2172,333.6267,42.5459,129.5085,-0.05127,-0.01060124,0.0,0 STARLINK-4600,1 53628U 22104AS  22304.58334491 -.01060124  00000-0 -51270-1 0  9993,2 53628  53.2172 333.6267 0001841  42.5459 129.5085 15.21184674  1302,6880.403,94.663,503.535,501.001,0.0
53628.0,STARLINK-4600,PAYLOAD,2022-10-31 22:00:01,15.20425462,0.000178,53.2173,332.1002,42.9407,155.1456,-0.05247,-0.01060866,0.0,0 STARLINK-4600,1 53628U 22104AS  22304.91668981 -.01060866  00000-0 -52470-1 0  9990,2 53628  53.2173 332.1002 0001780  42.9407 155.1456 15.20425462 10166,6882.693,94.71,505.783,503.333,0.0
53628.0,STARLINK-4600,PAYLOAD,2022-11-01 14:00:01,15.18875548,0.00018,53.2171,329.0596,40.2923,206.9401,-0.052448,-0.01017192,0.0,0 STARLINK-4600,1 53628U 22104AS  22305.58334491 -.01017192  00000-0 -52448-1 0  9999,2 53628  53.2171 329.0596 0001800  40.2923 206.9401 15.18875548  1306,6887.375,94.807,510.479,508.0,0.0
53628.0,STARLINK-4600,PAYLOAD,2022-11-01 22:00:00,15.18187062,0.0004074,53.2175,327.5391,278.1333,352.2956,-0.059085,-0.01129254,0.0,0 STARLINK-4600,1 53628U 22104AS  22305.91667824 -.01129254  00000-0 -59085-1 0  9992,2 53628  53.2175 327.5391 0004074 278.1333 352.2956 15.18187062 10317,6889.456999999999,94.85,514.129,508.515,0.0
53628.0,STARLINK-4600,PAYLOAD,2022-11-02 06:00:00,15.17392667,0.0006466,53.2174,326.0223,270.5863,22.1761,-0.057694,-0.01081983,0.0,0 STARLINK-4600,1 53628U 22104AS  22306.25001157 -.01081983  00000-0 -57694-1 0  9991,2 53628  53.2174 326.0223 0006466 270.5863  22.1761 15.17392667 10365,6891.861,94.9,518.182,509.27,0.0
53628.0,STARLINK-4600,PAYLOAD,2022-11-02 14:00:01,15.16623552,0.0006294,53.2172,324.5075,269.6182,44.552,-0.058175,-0.01054896,0.0,0 STARLINK-4600,1 53628U 22104AS  22306.58334491 -.01054896  00000-0 -58175-1 0  9995,2 53628  53.2172 324.5075 0006294 269.6182  44.5520 15.16623552  1307,6894.191,94.948,520.395,511.717,0.0
53628.0,STARLINK-4600,PAYLOAD,2022-11-02 22:00:00,15.15866885,0.0001521999999999,53.2173,322.9922,44.7004,289.9608,-0.059717,-0.01071453,0.0,0 STARLINK-4600,1 53628U 22104AS  22306.91667824 -.01071453  00000-0 -59717-1 0  9992,2 53628  53.2173 322.9922 0001522  44.7004 289.9608 15.15866885 10472,6896.485,94.995,519.4,517.3,0.0
53628.0,STARLINK-4600,PAYLOAD,2022-11-03 14:00:01,15.14357437,0.0001726,53.2171,319.9726,38.2965,334.6036,-0.063205,-0.0108525,0.0,0 STARLINK-4600,1 53628U 22104AS  22307.58334491 -.01085250  00000-0 -63205-1 0  9994,2 53628  53.2171 319.9726 0001726  38.2965 334.6036 15.14357437  1300,6901.066999999999,95.09,524.123,521.741,0.0
53628.0,STARLINK-4600,PAYLOAD,2022-11-03 22:00:00,15.13588308,0.0001607,53.2173,318.462,41.0706,349.5887,-0.063718,-0.01071539,0.0,0 STARLINK-4600,1 53628U 22104AS  22307.91667824 -.01071539  00000-0 -63718-1 0  9994,2 53628  53.2173 318.4620 0001607  41.0706 349.5887 15.13588308 10628,6903.405,95.138,526.379,524.16,0.0
53628.0,STARLINK-4600,PAYLOAD,2022-11-04 00:00:00,15.13400709,0.0001789,53.2175,318.0851,44.3613,80.5927,-0.064266,-0.01074821,0.0,0 STARLINK-4600,1 53628U 22104AS  22308.00001157 -.01074821  00000-0 -64266-1 0  9992,2 53628  53.2175 318.0851 0001789  44.3613  80.5927 15.13400709  1306,6903.975,95.15,527.075,524.605,0.0
53628.0,STARLINK-4600,PAYLOAD,2022-11-04 14:00:01,15.12071731,0.000177,53.2172,315.4523,38.136,25.2899,-0.066706,-0.01074712,0.0,0 STARLINK-4600,1 53628U 22104AS  22308.58334491 -.01074712  00000-0 -66706-1 0  9995,2 53628  53.2172 315.4523 0001770  38.1360  25.2899 15.12071731  1302,6908.02,95.234,531.1080000000002,528.6619999999998,0.0
53628.0,STARLINK-4600,PAYLOAD,2022-11-04 22:00:01,15.113146400000002,0.0001889,53.2175,313.9487,35.2644,43.2391,-0.068411,-0.01078794,0.0,0 STARLINK-4600,1 53628U 22104AS  22308.91668981 -.01078794  00000-0 -68411-1 0  9995,2 53628  53.2175 313.9487 0001889  35.2644  43.2391 15.11314640 10777,6910.3269999999975,95.281,533.497,530.886,0.0
53628.0,STARLINK-4600,PAYLOAD,2022-11-05 00:00:00,15.11121952,0.0001956,53.2176,313.5727,40.4723,131.5808,-0.068453,-0.01074055,0.0,0 STARLINK-4600,1 53628U 22104AS  22309.00001157 -.01074055  00000-0 -68453-1 0  9994,2 53628  53.2176 313.5727 0001956  40.4723 131.5808 15.11121952  1307,6910.9140000000025,95.293,534.131,531.427,0.0
53628.0,STARLINK-4600,PAYLOAD,2022-11-05 14:00:01,15.09715207,0.0001805,53.217,310.9493,38.1414,67.6672,-0.056608,-0.00858194,0.0,0 STARLINK-4600,1 53628U 22104AS  22309.58335648 -.00858194  00000-0 -56608-1 0  9994,2 53628  53.2170 310.9493 0001805  38.1414  67.6672 15.09715207  1303,6915.206999999999,95.382,538.32,535.823,0.0
53628.0,STARLINK-4600,PAYLOAD,2022-11-05 22:00:01,15.09000362,0.0001631999999999,53.2175,309.4503,41.4747,76.6191,-0.015806,-0.00244489,0.0,0 STARLINK-4600,1 53628U 22104AS  22309.91668981 -.00244489  00000-0 -15806-1 0  9991,2 53628  53.2175 309.4503 0001632  41.4747  76.6191 15.09000362 10920,6917.39,95.427,540.384,538.126,0.0
53628.0,STARLINK-4600,PAYLOAD,2022-11-06 06:00:00,15.08884177,0.0001937,53.2175,307.9591,44.9186,84.7885,-0.00096361,-0.0001561,0.0,0 STARLINK-4600,1 53628U 22104AS  22310.25001157 -.00015610  00000-0 -96361-3 0  9995,2 53628  53.2175 307.9591 0001937  44.9186  84.7885 15.08884177 10971,6917.745,95.435,540.95,538.27,0.0
53628.0,STARLINK-4600,PAYLOAD,2022-11-06 14:00:01,15.08875358,0.0001869,53.2171,306.4624,40.9719,100.3679,-0.0015606,-0.00025064,0.0,0 STARLINK-4600,1 53628U 22104AS  22310.58334491 -.00025064  00000-0 -15606-2 0  9997,2 53628  53.2171 306.4624 0001869  40.9719 100.3679 15.08875358  1304,6917.772,95.435,540.93,538.344,0.0
53628.0,STARLINK-4600,PAYLOAD,2022-11-06 22:00:00,15.08855872,0.0001619,53.2173,304.9646,44.9484,108.0218,-0.00468,-0.00074038,0.0,0 STARLINK-4600,1 53628U 22104AS  22310.91667824 -.00074038  00000-0 -46800-2 0  9998,2 53628  53.2173 304.9646 0001619  44.9484 108.0218 15.08855872 11077,6917.831999999999,95.437,540.817,538.577,0.0
53628.0,STARLINK-4600,PAYLOAD,2022-11-07 14:00:01,15.08793101,0.0001773,53.2168,301.9731,40.8376,135.2371,0.0019541,0.00030909,0.0,0 STARLINK-4600,1 53628U 22104AS  22311.58334491  .00030909  00000-0  19541-2 0  9992,2 53628  53.2168 301.9731 0001773  40.8376 135.2371 15.08793101 11178,6918.024,95.441,541.115,538.6619999999998,0.0
53628.0,STARLINK-4600,PAYLOAD,2022-11-07 22:00:00,15.08808342,0.0001594,53.2169,300.4755,46.7685,140.8601,0.002879,0.00045789,0.0,0 STARLINK-4600,1 53628U 22104AS  22311.91667824  .00045789  00000-0  28790-2 0  9996,2 53628  53.2169 300.4755 0001594  46.7685 140.8601 15.08808342  1304,6917.977,95.44,540.945,538.739,0.0
